OBJECT_NAME,OBJECT_ID,EPOCH,MEAN_MOTION,ECCENTRICITY,INCLINATION,RA_OF_ASC_NODE,ARG_OF_PERICENTER,MEAN_ANOMALY,EPHEMERIS_TYPE,CLASSIFICATION_TYPE,NORAD_CAT_ID,ELEMENT_SET_NO,REV_AT_EPOCH,BSTAR,MEAN_MOTION_DOT,MEAN_MOTION_DDOT
UNIBRITE,2013-009G,2026-07-10T23:22:10.912224,14.36422680,.00095131,98.4044,10.9387,158.7321,201.4263,0,U,39092,999,70040,.49607684E-4,.103E-5,0
AIST-2 (RS43),2013-015D,2026-07-11T19:48:56.909088,15.26540278,.0017142,64.8671,176.7511,248.4002,111.5303,0,U,39133,999,72766,.13267E-3,.3281E-4,0
GAOFEN-1,2013-018A,2026-07-11T20:47:00.691872,14.76515195,.0016766,97.9090,264.4311,181.8080,178.3072,0,U,39150,999,71188,-.93947E-5,-.116E-5,0
NEE-01 PEGASO,2013-018B,2026-07-09T15:21:07.078464,14.93776228,.00138751,98.1250,335.5366,90.6498,269.6310,0,U,39151,999,71405,.1219934E-3,.1233E-4,0
TURKSAT-3USAT,2013-018C,2026-07-11T19:41:59.789760,14.96581422,.0012363,97.7941,283.5460,25.4239,334.7588,0,U,39152,999,71477,.12257E-3,.1338E-4,0
CUBEBUG-1 (CAPITAN BETO),2013-018D,2026-07-11T16:37:39.419040,14.97447621,.0012484,98.1685,353.7307,68.6396,291.6155,0,U,39153,999,71473,.10303E-3,.1136E-4,0
PROBA-V,2013-021A,2026-07-11T20:37:26.290848,14.23603107,.0005345,98.3602,170.2499,67.7410,292.4336,0,U,39159,999,68462,.36884E-4,.43E-6,0
ESTCUBE 1,2013-021C,2026-07-09T09:59:47.027328,14.81466873,.00068598,97.7282,243.8204,308.7981,51.2619,0,U,39161,999,70831,.14545286E-3,.1089E-4,0
ARIRANG-5 (KOMPSAT-5),2013-042A,2026-07-11T20:10:29.082432,15.04522723,.0005599,97.6218,19.1956,67.2330,292.9487,0,U,39227,999,70756,.71683E-4,.943E-5,0
GONETS-M 5,2013-048A,2026-07-11T19:51:31.082976,12.42892581,.0017235,82.4844,328.0203,156.7338,203.4525,0,U,39249,999,58194,.56916E-4,.18E-6,0
GONETS-M 7,2013-048C,2026-07-11T20:53:26.714112,12.42915678,.0017994,82.4911,330.9286,157.8768,202.3092,0,U,39251,999,58190,.54747E-3,.86E-6,0
FENGYUN 3C,2013-052A,2026-07-11T20:24:13.949280,14.15760331,.0013816,98.4995,165.5946,316.2065,43.8013,0,U,39260,999,66205,.33534E-4,.24E-6,0
CASSIOPE,2013-055A,2026-07-11T19:28:10.527744,15.27268691,.0283704,80.9128,36.7656,339.3640,19.6310,0,U,39265,999,67142,.24385E-3,.22755E-3,-.54554E-6
APRIZESAT 7,2013-066A,2026-07-11T20:10:59.657664,14.91614934,.003701,97.7720,145.7086,128.0579,232.3988,0,U,39416,999,68490,.58178E-4,.534E-5,0
ZACUBE-1 (TSHEPISOSAT),2013-066B,2026-07-11T20:51:05.095872,15.01319977,.0043829,97.8011,155.3281,165.8749,194.3711,0,U,39417,999,68443,.1149E-3,.1444E-4,0
APRIZESAT 8,2013-066K,2026-07-11T19:49:31.311840,14.87693219,.0045219,97.8228,139.9521,203.0906,156.8279,0,U,39425,999,68333,.51745E-4,.423E-5,0
CINEMA-3 (KHUSAT-2),2013-066L,2026-07-11T17:06:25.273728,14.78348066,.0090917,97.8382,104.2659,132.1210,228.7775,0,U,39426,999,67807,.94426E-4,.681E-5,0
TRITON-1,2013-066M,2026-07-11T19:24:54.659808,14.81788768,.0090314,97.8226,102.0538,153.0613,207.5331,0,U,39427,999,67773,.13798E-3,.1112E-4,0
DELFI-N3XT,2013-066N,2026-07-11T17:43:26.171040,14.95335911,.0075814,97.8335,113.0291,124.1028,236.7416,0,U,39428,999,67829,.36267E-3,.4174E-4,0
GOMX-1,2013-066Q,2026-07-11T20:02:12.861312,14.69538264,.0128613,97.6478,31.7425,359.0146,1.0788,0,U,39430,999,67353,.15681E-3,.1004E-4,0
BRITE-PL1 (LEM),2013-066R,2026-07-11T20:57:27.853056,14.51385855,.0188564,97.7978,303.4424,294.6221,63.5436,0,U,39431,999,66751,.44958E-4,.173E-5,0
ICUBE-1,2013-066S,2026-07-11T09:17:05.534304,15.26438903,.00141581,97.5696,178.3674,240.9044,119.0777,0,U,39432,999,68810,.29860113E-3,.7726E-4,0
VELOX-PII,2013-066Y,2026-07-11T19:54:22.188672,14.93247522,.0050891,97.8753,144.2260,261.0481,98.4975,0,U,39438,999,68151,.13086E-3,.1341E-4,0
CUBEBUG-2 (LO-74),2013-066AA,2026-07-11T20:18:42.659712,14.93953448,.0056005,97.8908,141.9334,306.7356,52.8728,0,U,39440,999,68067,.17145E-3,.1819E-4,0
NEE-02 KRYSAOR,2013-066AB,2026-07-11T18:36:46.089216,14.86730516,.0065707,97.8892,131.8170,350.5702,9.4275,0,U,39441,999,67985,.17018E-3,.1515E-4,0
FUNCUBE-1 (AO-73),2013-066AE,2026-07-11T20:18:43.529760,15.09793115,.0037967,97.8287,164.8137,118.4650,242.0412,0,U,39444,999,68338,.24801E-3,.4005E-4,0
HINCUBE,2013-066AF,2026-07-11T08:46:04.244160,15.08560013,.00346459,97.7979,161.2562,126.5991,233.8433,0,U,39445,999,68317,.22592587E-3,.351E-4,0
UWE-3,2013-066AG,2026-07-11T19:28:32.557152,14.97185641,.0047517,97.8698,149.0559,236.3304,123.3381,0,U,39446,999,68126,.15713E-3,.1794E-4,0
SMDC ONE 2.4,2013-072H,2026-07-11T18:16:59.734272,15.18745021,.014777,120.4916,87.0012,44.9161,316.3763,0,U,39469,999,12156,.31499E-3,.8388E-4,0
CP8 (IPEX),2013-072K,2026-07-11T13:36:35.246304,15.08377389,.0168358,120.4690,31.0818,27.9468,333.0526,0,U,39471,999,11891,.2028E-3,.4002E-4,0
COSMOS 2488 (RODNIK-S 7),2013-076A,2026-07-11T21:51:51.797088,12.42906624,.0020688,82.4844,153.2919,44.3206,315.9526,0,U,39483,999,56896,.59302E-3,.92E-6,0
COSMOS 2489 (RODNIK-S 8),2013-076B,2026-07-11T21:16:54.203808,12.42880635,.0022505,82.4880,154.6938,44.1105,316.1765,0,U,39484,999,56901,.10033E-2,.149E-5,0
COSMOS 2490 (RODNIK-S 9),2013-076C,2026-07-11T20:36:28.310400,12.42879986,.0022846,82.4827,152.7681,59.0344,301.2977,0,U,39485,999,56894,.16404E-2,.237E-5,0
AIST-1 (RS41),2013-078C,2026-07-11T20:08:49.763904,14.96133649,.0016268,82.4149,246.9927,189.5905,170.5009,0,U,39492,999,67893,.11125E-3,.128E-4,0
KAZEOSAT 1,2014-024A,2026-07-11T20:40:41.997216,14.42036188,.0001266,98.3201,264.6938,81.1787,278.9547,0,U,39731,999,64211,.92821E-5,-.12E-6,0
COSMOS 2496 (RODNIK-S 10),2014-028A,2026-07-11T19:35:14.991936,12.42879074,.0020992,82.4453,93.3061,27.9957,332.2247,0,U,39761,999,55057,-.35623E-3,-.39E-6,0
COSMOS 2497 (RODNIK-S 11),2014-028B,2026-07-11T18:59:12.136416,12.42895141,.0021483,82.4501,95.0209,23.1475,337.0568,0,U,39762,999,55057,.18607E-3,.36E-6,0
COSMOS 2498 (RODNIK-S 12),2014-028C,2026-07-11T20:20:24.437184,12.42980763,.0022185,82.4462,93.4620,22.5578,337.6472,0,U,39763,999,55061,.13894E-4,.12E-6,0
COSMOS 2499 (RS47),2014-028E,2026-07-11T20:16:10.194816,12.82903099,.023046,82.4473,235.7905,303.9144,54.0232,0,U,39765,999,56818,.48873E-4,.22E-6,0
HODOYOSHI-4,2014-033B,2026-07-11T20:17:07.827936,14.88182206,.0022447,97.5461,16.4796,221.3696,138.5823,0,U,40011,999,65247,.52793E-4,.436E-5,0
UNISAT-6,2014-033C,2026-07-11T17:45:42.620832,14.88357777,.0044463,97.7904,345.0249,349.3063,10.7204,0,U,40012,999,64981,.13609E-3,.1225E-4,0
DEIMOS-2,2014-033D,2026-07-11T21:37:51.564000,14.93789244,.0000919,97.5806,66.5191,85.4649,274.6676,0,U,40013,999,64141,.11426E-4,.67E-6,0
BUGSAT-1 (TITA),2014-033E,2026-07-11T20:36:12.525984,15.15859463,.0029101,98.0434,286.8544,96.8256,263.6288,0,U,40014,999,65957,.16134E-3,.3042E-4,0
SAUDISAT 4,2014-033G,2026-07-11T20:54:11.368224,14.79573545,.0044533,97.7612,338.1563,354.9490,5.1267,0,U,40016,999,64972,.42891E-4,.274E-5,0
APRIZESAT 9,2014-033J,2026-07-11T20:17:47.031072,14.74249965,.0067338,97.9089,325.4456,120.4864,240.3018,0,U,40018,999,64719,.62796E-4,.378E-5,0
BRITE-CA1 (TORONTO),2014-033L,2026-07-11T20:05:46.288320,14.72718584,.0078194,97.9767,321.3151,197.0405,162.8175,0,U,40020,999,64584,.93137E-4,.569E-5,0
DUCHIFAT-1,2014-033M,2026-07-11T09:52:16.917024,15.70259500,.00020545,98.0442,255.0791,250.9446,109.1592,0,U,40021,999,65954,.80962005E-3,.99078E-3,0
NANOSATC-BR1,2014-033Q,2026-07-11T15:15:34.348608,15.32251608,.0005324,98.0715,227.2031,105.3164,254.8665,0,U,40024,999,65772,.33686E-3,.10408E-3,0
QB50P1,2014-033R,2026-07-11T14:21:34.410816,15.18630813,.0010172,98.0966,205.4618,135.5063,224.6988,0,U,40025,999,65673,.23978E-3,.4893E-4,0
DTUSAT-2,2014-033W,2026-07-11T12:58:46.506720,15.15323901,.00090244,98.0873,191.8202,142.6007,217.5854,0,U,40030,999,65637,.23319422E-3,.4323E-4,0
QB50P2,2014-033Y,2026-07-11T12:47:08.602944,15.15477038,.00093661,98.0759,190.9346,94.0976,266.1326,0,U,40032,999,65635,.23404727E-3,.4358E-4,0
PERSEUS-M1,2014-033AF,2026-07-11T18:56:52.474272,14.95707086,.0010725,97.9650,137.3273,208.5536,151.5098,0,U,40039,999,65431,.11856E-3,.126E-4,0
POLYITAN-1,2014-033AJ,2026-07-11T14:00:50.516064,15.34132156,.0008187,98.0942,221.1671,74.8033,285.4113,0,U,40042,999,65733,.34589E-3,.11351E-3,0
TIGRISAT,2014-033AK,2026-07-11T08:52:24.274560,14.85242878,.00489566,97.7858,341.8319,356.9649,3.1262,0,U,40043,999,64921,.10764196E-3,.887E-5,0
AISAT,2014-034B,2026-07-11T18:19:42.096288,15.09291268,.0010582,98.2375,106.9683,131.7378,228.4755,0,U,40054,999,65091,.37847E-3,.5967E-4,0
CANX-4,2014-034C,2026-07-11T14:30:57.212640,14.81307437,.0011518,98.3090,68.8109,295.6910,64.3112,0,U,40055,999,64814,.66414E-4,.461E-5,0
CANX-5,2014-034D,2026-07-11T14:28:17.211072,14.81324741,.0011519,98.3092,68.8540,295.9041,64.0982,0,U,40056,999,63895,.65985E-4,.458E-5,0
VELOX-I,2014-034E,2026-07-11T21:45:48.877344,14.98112086,.0006731,98.2538,99.3138,172.0913,188.0415,0,U,40057,999,65030,.24725E-3,.2863E-4,0
GONETS-M 10,2014-036C,2026-07-11T20:41:51.173376,12.42946284,.0022988,82.5120,292.3490,89.3659,271.0054,0,U,40063,999,54531,.14819E-3,.31E-6,0
METEOR-M 2,2014-037A,2026-07-11T20:27:30.847104,14.21468144,.0005359,98.5124,167.7185,337.7780,22.3165,0,U,40069,999,62282,-.97109E-5,-.63E-6,0
DX1,2014-037C,2026-07-11T20:56:32.042112,14.90060165,.0006741,98.3876,156.0750,179.5647,180.5576,0,U,40071,999,64978,.1334E-3,.1226E-4,0
UKUBE-1,2014-037F,2026-07-11T19:47:15.222336,15.13918635,.0003283,98.4242,198.6920,93.7366,266.4238,0,U,40074,999,65228,.28304E-3,.5049E-4,0
GAOFEN-2,2014-049A,2026-07-11T20:07:11.921088,14.80923657,.0008023,98.0103,257.0207,144.0367,216.1386,0,U,40118,999,64288,-.2299E-4,-.231E-5,0
BRITE-PL2 (HEWELIUSZ),2014-049B,2026-07-11T12:59:11.024448,14.94680800,.00146524,97.9117,304.7322,34.1400,326.0759,0,U,40119,999,64508,.10343543E-3,.1064E-4,0
CBERS 4,2014-079A,2026-07-11T20:25:30.466848,14.35514802,.0000944,98.3525,248.9072,50.4422,309.6847,0,U,40336,999,60749,-.21248E-4,-.103E-5,0
SMAP,2015-003A,2026-07-11T19:58:00.611328,14.63387421,.0001575,98.1282,199.5779,96.0735,264.0647,0,U,40376,999,61122,.50573E-4,.215E-5,0
